SL-3 R/B                
1 13154U 82039B   25323.30492386  .00002729  00000+0  16773-3 0  9992
2 13154  81.1767 343.0484 0031640 330.0028  29.9383 15.09337682364980
SL-3 R/B                
1 13403U 82079B   25323.23189190  .00005705  00000+0  23774-3 0  9997
2 13403  81.1454 323.3666 0025723 175.7646 184.3809 15.23231262360874
SL-14 R/B               
1 13553U 82092B   25323.26605226  .00000774  00000+0  84554-4 0  9999
2 13553  82.5686 244.6622 0019197 310.9733 164.4078 14.86519564312525
SL-3 R/B                
1 13819U 83010B   25323.23193182  .00014279  00000+0  32531-3 0  9997
2 13819  81.1019 137.2942 0018208  71.5680 288.7540 15.42627313340890
SL-3 R/B                
1 14208U 83075B   25323.26634741  .00011665  00000+0  33817-3 0  9999
2 14208  97.6095 318.9746 0020909 264.0458  95.8402 15.35494136313196
COSMOS 1536             
1 14699U 84013A   25323.14325671  .00007047  00000+0  30512-3 0  9990
2 14699  82.5476 217.5552 0013861 318.4380  41.5801 15.22158952255793
SL-14 R/B               
1 14820U 84027B   25323.12018606  .00000571  00000+0  62690-4 0  9994
2 14820  82.5419 348.7081 0017505 344.7169  15.3517 14.85839132231214
SL-8 R/B                
1 15483U 85006B   25323.18420345  .00000297  00000+0  10726-3 0  9998
2 15483  74.0443 104.4711 0017739  43.8562 128.5773 14.37699994138149
SL-12 R/B(2)            
1 15772U 85042D   25323.23991087  .00000198  00000+0  11060-3 0  9993
2 15772  71.1079 321.0671 0037468 295.8615  74.4000 14.21941352 98692
SL-14 R/B               
1 15945U 85069B   25323.20580229  .00000743  00000+0  81440-4 0  9999
2 15945  82.5245 128.8281 0018408 194.1384 165.9320 14.86283638156426
SL-16 R/B               
1 16182U 85097B   25323.26587865  .00000310  00000+0  17914-3 0  9997
2 16182  71.0044  13.0230 0005499  54.2300  10.3920 14.16578936 71593
SL-14 R/B               
1 16496U 86006B   25323.20965039  .00000880  00000+0  91601-4 0  9991
2 16496  82.5283   3.6914 0075211 279.1176  80.1537 14.86625807132791
