CCSDS_OMM_VERS = 2.0
CREATION_DATE  = 
ORIGINATOR     = 

OBJECT_NAME    = SL-3 R/B
OBJECT_ID      = 1982-039B
CENTER_NAME    = EARTH
REF_FRAME      = TEME
TIME_SYSTEM    = UTC
MEAN_ELEMENT_THEORY = SGP/SGP4

EPOCH          = 2025-11-19T07:19:05.421504
MEAN_MOTION    = 15.09337682
ECCENTRICITY   = .00316408
INCLINATION    = 81.1767
RA_OF_ASC_NODE = 343.0484
ARG_OF_PERICENTER = 330.0028
MEAN_ANOMALY   = 29.9383

EPHEMERIS_TYPE = 0
CLASSIFICATION_TYPE = U
NORAD_CAT_ID   = 13154
ELEMENT_SET_NO = 999
REV_AT_EPOCH   = 36498
BSTAR          = .16772849E-3
MEAN_MOTION_DOT = .2729E-4
MEAN_MOTION_DDOT = 0

CCSDS_OMM_VERS = 2.0
CREATION_DATE  = 
ORIGINATOR     = 

OBJECT_NAME    = SL-3 R/B
OBJECT_ID      = 1982-079B
CENTER_NAME    = EARTH
REF_FRAME      = TEME
TIME_SYSTEM    = UTC
MEAN_ELEMENT_THEORY = SGP/SGP4

EPOCH          = 2025-11-19T05:33:55.460160
MEAN_MOTION    = 15.23231262
ECCENTRICITY   = .00257236
INCLINATION    = 81.1454
RA_OF_ASC_NODE = 323.3666
ARG_OF_PERICENTER = 175.7646
MEAN_ANOMALY   = 184.3809

EPHEMERIS_TYPE = 0
CLASSIFICATION_TYPE = U
NORAD_CAT_ID   = 13403
ELEMENT_SET_NO = 999
REV_AT_EPOCH   = 36087
BSTAR          = .2377404E-3
MEAN_MOTION_DOT = .5705E-4
MEAN_MOTION_DDOT = 0

CCSDS_OMM_VERS = 2.0
CREATION_DATE  = 
ORIGINATOR     = 

OBJECT_NAME    = SL-14 R/B
OBJECT_ID      = 1982-092B
CENTER_NAME    = EARTH
REF_FRAME      = TEME
TIME_SYSTEM    = UTC
MEAN_ELEMENT_THEORY = SGP/SGP4

EPOCH          = 2025-11-19T06:23:06.915264
MEAN_MOTION    = 14.86519564
ECCENTRICITY   = .00191973
INCLINATION    = 82.5686
RA_OF_ASC_NODE = 244.6622
ARG_OF_PERICENTER = 310.9733
MEAN_ANOMALY   = 164.4078

EPHEMERIS_TYPE = 0
CLASSIFICATION_TYPE = U
NORAD_CAT_ID   = 13553
ELEMENT_SET_NO = 999
REV_AT_EPOCH   = 31252
BSTAR          = .84553647E-4
MEAN_MOTION_DOT = .774E-5
MEAN_MOTION_DDOT = 0

CCSDS_OMM_VERS = 2.0
CREATION_DATE  = 
ORIGINATOR     = 

OBJECT_NAME    = SL-3 R/B
OBJECT_ID      = 1983-010B
CENTER_NAME    = EARTH
REF_FRAME      = TEME
TIME_SYSTEM    = UTC
MEAN_ELEMENT_THEORY = SGP/SGP4

EPOCH          = 2025-11-19T05:33:58.909248
MEAN_MOTION    = 15.42627313
ECCENTRICITY   = .00182086
INCLINATION    = 81.1019
RA_OF_ASC_NODE = 137.2942
ARG_OF_PERICENTER = 71.5680
MEAN_ANOMALY   = 288.7540

EPHEMERIS_TYPE = 0
CLASSIFICATION_TYPE = U
NORAD_CAT_ID   = 13819
ELEMENT_SET_NO = 999
REV_AT_EPOCH   = 34089
BSTAR          = .32530887E-3
MEAN_MOTION_DOT = .14279E-3
MEAN_MOTION_DDOT = 0

CCSDS_OMM_VERS = 2.0
CREATION_DATE  = 
ORIGINATOR     = 

OBJECT_NAME    = SL-3 R/B
OBJECT_ID      = 1983-075B
CENTER_NAME    = EARTH
REF_FRAME      = TEME
TIME_SYSTEM    = UTC
MEAN_ELEMENT_THEORY = SGP/SGP4

EPOCH          = 2025-11-19T06:23:32.416224
MEAN_MOTION    = 15.35494136
ECCENTRICITY   = .00209097
INCLINATION    = 97.6095
RA_OF_ASC_NODE = 318.9746
ARG_OF_PERICENTER = 264.0458
MEAN_ANOMALY   = 95.8402

EPHEMERIS_TYPE = 0
CLASSIFICATION_TYPE = U
NORAD_CAT_ID   = 14208
ELEMENT_SET_NO = 999
REV_AT_EPOCH   = 31319
BSTAR          = .33816823E-3
MEAN_MOTION_DOT = .11665E-3
MEAN_MOTION_DDOT = 0

CCSDS_OMM_VERS = 2.0
CREATION_DATE  = 
ORIGINATOR     = 

OBJECT_NAME    = COSMOS 1536
OBJECT_ID      = 1984-013A
CENTER_NAME    = EARTH
REF_FRAME      = TEME
TIME_SYSTEM    = UTC
MEAN_ELEMENT_THEORY = SGP/SGP4

EPOCH          = 2025-11-19T03:26:17.379744
MEAN_MOTION    = 15.22158952
ECCENTRICITY   = .00138617
INCLINATION    = 82.5476
RA_OF_ASC_NODE = 217.5552
ARG_OF_PERICENTER = 318.4380
MEAN_ANOMALY   = 41.5801

EPHEMERIS_TYPE = 0
CLASSIFICATION_TYPE = U
NORAD_CAT_ID   = 14699
ELEMENT_SET_NO = 999
REV_AT_EPOCH   = 25579
BSTAR          = .30512006E-3
MEAN_MOTION_DOT = .7047E-4
MEAN_MOTION_DDOT = 0

CCSDS_OMM_VERS = 2.0
CREATION_DATE  = 
ORIGINATOR     = 

OBJECT_NAME    = SL-14 R/B
OBJECT_ID      = 1984-027B
CENTER_NAME    = EARTH
REF_FRAME      = TEME
TIME_SYSTEM    = UTC
MEAN_ELEMENT_THEORY = SGP/SGP4

EPOCH          = 2025-11-19T02:53:04.075584
MEAN_MOTION    = 14.85839132
ECCENTRICITY   = .00175053
INCLINATION    = 82.5419
RA_OF_ASC_NODE = 348.7081
ARG_OF_PERICENTER = 344.7169
MEAN_ANOMALY   = 15.3517

EPHEMERIS_TYPE = 0
CLASSIFICATION_TYPE = U
NORAD_CAT_ID   = 14820
ELEMENT_SET_NO = 999
REV_AT_EPOCH   = 23121
BSTAR          = .62690315E-4
MEAN_MOTION_DOT = .571E-5
MEAN_MOTION_DDOT = 0

CCSDS_OMM_VERS = 2.0
CREATION_DATE  = 
ORIGINATOR     = 

OBJECT_NAME    = SL-8 R/B
OBJECT_ID      = 1985-006B
CENTER_NAME    = EARTH
REF_FRAME      = TEME
TIME_SYSTEM    = UTC
MEAN_ELEMENT_THEORY = SGP/SGP4

EPOCH          = 2025-11-19T04:25:15.178080
MEAN_MOTION    = 14.37699994
ECCENTRICITY   = .00177396
INCLINATION    = 74.0443
RA_OF_ASC_NODE = 104.4711
ARG_OF_PERICENTER = 43.8562
MEAN_ANOMALY   = 128.5773

EPHEMERIS_TYPE = 0
CLASSIFICATION_TYPE = U
NORAD_CAT_ID   = 15483
ELEMENT_SET_NO = 999
REV_AT_EPOCH   = 13814
BSTAR          = .10725868E-3
MEAN_MOTION_DOT = .297E-5
MEAN_MOTION_DDOT = 0

CCSDS_OMM_VERS = 2.0
CREATION_DATE  = 
ORIGINATOR     = 

OBJECT_NAME    = SL-12 R/B(2)
OBJECT_ID      = 1985-042D
CENTER_NAME    = EARTH
REF_FRAME      = TEME
TIME_SYSTEM    = UTC
MEAN_ELEMENT_THEORY = SGP/SGP4

EPOCH          = 2025-11-19T05:45:28.299168
MEAN_MOTION    = 14.21941352
ECCENTRICITY   = .00374683
INCLINATION    = 71.1079
RA_OF_ASC_NODE = 321.0671
ARG_OF_PERICENTER = 295.8615
MEAN_ANOMALY   = 74.4000

EPHEMERIS_TYPE = 0
CLASSIFICATION_TYPE = U
NORAD_CAT_ID   = 15772
ELEMENT_SET_NO = 999
REV_AT_EPOCH   = 9869
BSTAR          = .11060172E-3
MEAN_MOTION_DOT = .198E-5
MEAN_MOTION_DDOT = 0

CCSDS_OMM_VERS = 2.0
CREATION_DATE  = 
ORIGINATOR     = 

OBJECT_NAME    = SL-14 R/B
OBJECT_ID      = 1985-069B
CENTER_NAME    = EARTH
REF_FRAME      = TEME
TIME_SYSTEM    = UTC
MEAN_ELEMENT_THEORY = SGP/SGP4

EPOCH          = 2025-11-19T04:56:21.317856
MEAN_MOTION    = 14.86283638
ECCENTRICITY   = .00184084
INCLINATION    = 82.5245
RA_OF_ASC_NODE = 128.8281
ARG_OF_PERICENTER = 194.1384
MEAN_ANOMALY   = 165.9320

EPHEMERIS_TYPE = 0
CLASSIFICATION_TYPE = U
NORAD_CAT_ID   = 15945
ELEMENT_SET_NO = 999
REV_AT_EPOCH   = 15642
BSTAR          = .81440406E-4
MEAN_MOTION_DOT = .743E-5
MEAN_MOTION_DDOT = 0

CCSDS_OMM_VERS = 2.0
CREATION_DATE  = 
ORIGINATOR     = 

OBJECT_NAME    = SL-16 R/B
OBJECT_ID      = 1985-097B
CENTER_NAME    = EARTH
REF_FRAME      = TEME
TIME_SYSTEM    = UTC
MEAN_ELEMENT_THEORY = SGP/SGP4

EPOCH          = 2025-11-19T06:22:51.915360
MEAN_MOTION    = 14.16578936
ECCENTRICITY   = .00054999
INCLINATION    = 71.0044
RA_OF_ASC_NODE = 13.0230
ARG_OF_PERICENTER = 54.2300
MEAN_ANOMALY   = 10.3920

EPHEMERIS_TYPE = 0
CLASSIFICATION_TYPE = U
NORAD_CAT_ID   = 16182
ELEMENT_SET_NO = 999
REV_AT_EPOCH   = 7159
BSTAR          = .17914346E-3
MEAN_MOTION_DOT = .31E-5
MEAN_MOTION_DDOT = 0

CCSDS_OMM_VERS = 2.0
CREATION_DATE  = 
ORIGINATOR     = 

OBJECT_NAME    = SL-14 R/B
OBJECT_ID      = 1986-006B
CENTER_NAME    = EARTH
REF_FRAME      = TEME
TIME_SYSTEM    = UTC
MEAN_ELEMENT_THEORY = SGP/SGP4

EPOCH          = 2025-11-19T05:01:53.793696
MEAN_MOTION    = 14.86625807
ECCENTRICITY   = .00752114
INCLINATION    = 82.5283
RA_OF_ASC_NODE = 3.6914
ARG_OF_PERICENTER = 279.1176
MEAN_ANOMALY   = 80.1537

EPHEMERIS_TYPE = 0
CLASSIFICATION_TYPE = U
NORAD_CAT_ID   = 16496
ELEMENT_SET_NO = 999
REV_AT_EPOCH   = 13279
BSTAR          = .91601336E-4
MEAN_MOTION_DOT = .88E-5
MEAN_MOTION_DDOT = 0

